GSAT0101 (PRN E11)      
1 37846U 11060A   24020.14407011 -.00000089  00000+0  00000+0 0  9998
2 37846  57.1243   5.5648 0003298 333.3981  26.5859  1.70475796 76130
GSAT0102 (PRN E12)      
1 37847U 11060B   24020.30542172 -.00000089  00000+0  00000+0 0  9995
2 37847  57.1249   5.5606 0005061 318.1814 186.8081  1.70475215 76141
GSAT0103 (PRN E19)      
1 38857U 12055A   24020.18323386 -.00000030  00000+0  00000+0 0  9998
2 38857  55.3412 125.7025 0003803 252.5477 107.3899  1.70473419 70023
GSAT0104 (PRN E20)      
1 38858U 12055B   24020.15251134 -.00000030  00000+0  00000+0 0  9997
2 38858  55.3412 125.7049 0001748 224.7009 135.2642  1.70473603 70131
GSAT0201 (PRN E18)      
1 40128U 14050A   24020.32541632 -.00000106  00000+0  00000+0 0  9995
2 40128  49.8049 309.0423 1605691 145.5445 226.0181  1.85519510 62012
GSAT0202 (PRN E14)      
1 40129U 14050B   24021.66227113 -.00000099  00000+0  00000+0 0  9990
2 40129  49.8217 308.0630 1603986 146.3998 224.9123  1.85520264 64176
GSAT0203 (PRN E26)      
1 40544U 15017A   24021.09644242 -.00000092  00000+0  00000+0 0  9991
2 40544  56.9198   5.4931 0005389 275.0804  84.8570  1.70475720 54239
GSAT0204 (PRN E22)      
1 40545U 15017B   24021.35044329 -.00000092  00000+0  00000+0 0  9991
2 40545  56.9263   5.5012 0004844 266.1140  93.8292  1.70475516 17281
GSAT0205 (PRN E24)      
1 40889U 15045A   24021.11913491  .00000059  00000+0  00000+0 0  9994
2 40889  55.2887 245.8617 0006519  39.1794 320.9456  1.70473144 52044
GSAT0206 (PRN E30)      
1 40890U 15045B   24020.16658324  .00000056  00000+0  00000+0 0  9998
2 40890  55.2881 245.8836 0004275  34.8956 325.2067  1.70473227 52051
GSAT0209 (PRN E09)      
1 41174U 15079A   24022.09661575 -.00000039  00000+0  00000+0 0  9999
2 41174  55.3600 125.3579 0002556 309.2072  50.7473  1.70474842 50403
GSAT0208 (PRN E08)      
1 41175U 15079B   24019.38340132 -.00000023  00000+0  00000+0 0  9994
2 41175  55.3574 125.4304 0004323 292.0164  67.9203  1.70474220 50193
GSAT0211 (PRN E02)      
1 41549U 16030A   24020.09229492  .00000056  00000+0  00000+0 0  9997
2 41549  55.4357 245.8808 0004173   8.7062 351.3752  1.70473307 47680
GSAT0210 (PRN E01)      
1 41550U 16030B   24019.79700369  .00000054  00000+0  00000+0 0  9999
2 41550  55.4354 245.8900 0002040 351.3572   8.7123  1.70473475 47676
GSAT0207 (PRN E07)      
1 41859U 16069A   24020.63062670 -.00000034  00000+0  00000+0 0  9993
2 41859  55.0231 125.4361 0003202 286.4744  73.4685  1.70474512 44427
GSAT0212 (PRN E03)      
1 41860U 16069B   24019.89852295 -.00000028  00000+0  00000+0 0  9994
2 41860  55.0204 125.4530 0001535 325.6450  34.3254  1.70474927 44668
GSAT0213 (PRN E04)      
1 41861U 16069C   24021.43886796 -.00000038  00000+0  00000+0 0  9992
2 41861  55.0239 125.4166 0003093 259.7562 100.1857  1.70473455 44558
GSAT0214 (PRN E05)      
1 41862U 16069D   24020.41234185 -.00000032  00000+0  00000+0 0  9993
2 41862  55.0221 125.4390 0005143 275.6498  84.2702  1.70473845 44668
GSAT0215 (PRN E21)      
1 43055U 17079A   24020.90168526  .00000059  00000+0  00000+0 0  9998
2 43055  55.4134 245.6823 0001559   9.7921 350.2879  1.70474003 38011
GSAT0216 (PRN E25)      
1 43056U 17079B   24021.19349063  .00000059  00000+0  00000+0 0  9998
2 43056  55.4126 245.6741 0002614 326.6576  33.4039  1.70474162 38005
GSAT0217 (PRN E27)      
1 43057U 17079C   24019.65414260  .00000054  00000+0  00000+0 0  9994
2 43057  55.4110 245.7155 0002903 346.5131  13.5516  1.70473993 37995
GSAT0218 (PRN E31)      
1 43058U 17079D   24021.04734711  .00000059  00000+0  00000+0 0  9992
2 43058  55.4106 245.6746 0002701 314.7502  45.3053  1.70474121 38041
GSAT0221 (PRN E15)      
1 43564U 18060A   24020.94689473 -.00000091  00000+0  00000+0 0  9994
2 43564  57.2999   5.4605 0005932 287.6050  72.3294  1.70475621 34199
GSAT0222 (PRN E33)      
1 43565U 18060B   24021.75176324 -.00000092  00000+0  00000+0 0  9992
2 43565  57.3036   5.4401 0004812 266.2945  93.6478  1.70475373 34250
GSAT0219 (PRN E36)      
1 43566U 18060C   24020.21413502 -.00000089  00000+0  00000+0 0  9991
2 43566  57.3025   5.4836 0005225 293.8279  66.1179  1.70475613 34201
GSAT0220 (PRN E13)      
1 43567U 18060D   24021.60782142 -.00000092  00000+0  00000+0 0  9999
2 43567  57.3026   5.4457 0005478 290.3875  69.5513  1.70475604 34216
GSAT0223 (PRN E34)      
1 49809U 21116A   24020.57606351 -.00000090  00000+0  00000+0 0  9990
2 49809  57.2934   5.3687 0003162 254.3238 282.7639  1.70475649 13206
GSAT0224 (PRN E10)      
1 49810U 21116B   24021.27843185 -.00000091  00000+0  00000+0 0  9999
2 49810  57.2945   5.3481 0002559 265.9795  94.6603  1.70475730 13243
